2025-02-01T17:34:44.359104+00:00;ISS;1 25544U 98067A   25032.73245786  .00013805  00000-0  25233-3 0  9999;2 25544  51.6350 257.9368 0003396 260.4392 185.1884 15.49668340494153
2025-02-01T03:54:47.791296+00:00;ISS;1 25544U 98067A   25032.16305314  .00016120  00000-0  28210-3 0  9991;2 25544  51.6379 260.7592 0002069 153.7231 352.3252 15.50771351494063
2025-01-31T23:12:53.378208+00:00;ISS;1 25544U 98067A   25031.96728447  .00040060  00000-0  68732-3 0  9997;2 25544  51.6355 261.7300 0001732 150.8105 341.5805 15.50772786494033
2025-01-31T14:54:48.474432+00:00;ISS;1 25544U 98067A   25031.62139438  .00015169  00000-0  26611-3 0  9998;2 25544  51.6355 263.4489 0002157 160.4506 199.6566 15.50752821493981
2025-01-30T22:42:28.999872+00:00;ISS;1 25544U 98067A   25030.94616898  .00017245  00000-0  30159-3 0  9991;2 25544  51.6392 266.7922 0002197 150.6796  37.3757 15.50733764493879
2025-01-30T14:10:02.712288+00:00;ISS;1 25544U 98067A   25030.59030917  .00015007  00000-0  26369-3 0  9996;2 25544  51.6361 268.5635 0002215 158.9742 201.1339 15.50717505493826
2025-01-30T06:54:02.079648+00:00;ISS;1 25544U 98067A   25030.28752407  .00017371  00000-0  30397-3 0  9999;2 25544  51.6396 270.0592 0002237 149.8639 318.8131 15.50711335493777
2025-01-29T23:30:10.000224+00:00;ISS;1 25544U 98067A   25029.97928241  .00018235  00000-0  31876-3 0  9997;2 25544  51.6386 271.5905 0002054 143.9990  42.7673 15.50702605493721
2025-01-29T16:56:06.246240+00:00;ISS;1 25544U 98067A   25029.70562785  .00020566  00000-0  35850-3 0  9991;2 25544  51.6387 272.9482 0002126 142.5311 315.5480 15.50695229493684
2025-01-29T04:45:20.826144+00:00;ISS;1 25544U 98067A   25029.19815771  .00017930  00000-0  31389-3 0  9994;2 25544  51.6395 275.4621 0002297 144.0764 359.2036 15.50674311493607
2025-01-28T23:57:35.653248+00:00;ISS;1 25544U 98067A   25028.99832932  .00016702  00000-0  29308-3 0  9993;2 25544  51.6389 276.4604 0002376 143.0529 323.9553 15.50663298493578
2025-01-28T09:34:48.765792+00:00;ISS;1 25544U 98067A   25028.39917553  .00015387  00000-0  27089-3 0  9992;2 25544  51.6373 279.4304 0002075 147.0180 213.0939 15.50641392493482
