[
    {
        "OBJECT_NAME": "ISS (ZARYA)",
        "OBJECT_ID": "1998-067A",
        "EPOCH": "2025-01-28T09:34:48.765792",
        "MEAN_MOTION": 15.50641392,
        "ECCENTRICITY": 0.0002075,
        "INCLINATION": 51.6373,
        "RA_OF_ASC_NODE": 279.4304,
        "ARG_OF_PERICENTER": 147.018,
        "MEAN_ANOMALY": 213.0939,
        "EPHEMERIS_TYPE": 0,
        "CLASSIFICATION_TYPE": "U",
        "NORAD_CAT_ID": 25544,
        "ELEMENT_SET_NO": 999,
        "REV_AT_EPOCH": 49348,
        "BSTAR": 0.00027089,
        "MEAN_MOTION_DOT": 0.00015387,
        "MEAN_MOTION_DDOT": 0,
        "date_fetched": "2025-01-28T19:11:58.139198Z"
    },
    {
        "OBJECT_NAME": "ISS (ZARYA)",
        "OBJECT_ID": "1998-067A",
        "EPOCH": "2025-01-28T23:57:35.653248",
        "MEAN_MOTION": 15.50663298,
        "ECCENTRICITY": 0.0002376,
        "INCLINATION": 51.6389,
        "RA_OF_ASC_NODE": 276.4604,
        "ARG_OF_PERICENTER": 143.0529,
        "MEAN_ANOMALY": 323.9553,
        "EPHEMERIS_TYPE": 0,
        "CLASSIFICATION_TYPE": "U",
        "NORAD_CAT_ID": 25544,
        "ELEMENT_SET_NO": 999,
        "REV_AT_EPOCH": 49357,
        "BSTAR": 0.00029308,
        "MEAN_MOTION_DOT": 0.00016702,
        "MEAN_MOTION_DDOT": 0,
        "date_fetched": "2025-01-29T02:11:07.813092Z"
    },
    {
        "OBJECT_NAME": "ISS (ZARYA)",
        "OBJECT_ID": "1998-067A",
        "EPOCH": "2025-01-29T04:45:20.826144",
        "MEAN_MOTION": 15.50674311,
        "ECCENTRICITY": 0.0002297,
        "INCLINATION": 51.6395,
        "RA_OF_ASC_NODE": 275.4621,
        "ARG_OF_PERICENTER": 144.0764,
        "MEAN_ANOMALY": 359.2036,
        "EPHEMERIS_TYPE": 0,
        "CLASSIFICATION_TYPE": "U",
        "NORAD_CAT_ID": 25544,
        "ELEMENT_SET_NO": 999,
        "REV_AT_EPOCH": 49360,
        "BSTAR": 0.00031389,
        "MEAN_MOTION_DOT": 0.0001793,
        "MEAN_MOTION_DDOT": 0,
        "date_fetched": "2025-01-29T13:20:32.181837Z"
    },
    {
        "OBJECT_NAME": "ISS (ZARYA)",
        "OBJECT_ID": "1998-067A",
        "EPOCH": "2025-01-29T16:56:06.246240",
        "MEAN_MOTION": 15.50695229,
        "ECCENTRICITY": 0.0002126,
        "INCLINATION": 51.6387,
        "RA_OF_ASC_NODE": 272.9482,
        "ARG_OF_PERICENTER": 142.5311,
        "MEAN_ANOMALY": 315.548,
        "EPHEMERIS_TYPE": 0,
        "CLASSIFICATION_TYPE": "U",
        "NORAD_CAT_ID": 25544,
        "ELEMENT_SET_NO": 999,
        "REV_AT_EPOCH": 49368,
        "BSTAR": 0.0003585,
        "MEAN_MOTION_DOT": 0.00020566,
        "MEAN_MOTION_DDOT": 0,
        "date_fetched": "2025-01-29T19:11:25.388746Z"
    },
    {
        "OBJECT_NAME": "ISS (ZARYA)",
        "OBJECT_ID": "1998-067A",
        "EPOCH": "2025-01-29T23:30:10.000224",
        "MEAN_MOTION": 15.50702605,
        "ECCENTRICITY": 0.0002054,
        "INCLINATION": 51.6386,
        "RA_OF_ASC_NODE": 271.5905,
        "ARG_OF_PERICENTER": 143.999,
        "MEAN_ANOMALY": 42.7673,
        "EPHEMERIS_TYPE": 0,
        "CLASSIFICATION_TYPE": "U",
        "NORAD_CAT_ID": 25544,
        "ELEMENT_SET_NO": 999,
        "REV_AT_EPOCH": 49372,
        "BSTAR": 0.00031876,
        "MEAN_MOTION_DOT": 0.00018235,
        "MEAN_MOTION_DDOT": 0,
        "date_fetched": "2025-01-30T02:10:08.560657Z"
    },
    {
        "OBJECT_NAME": "ISS (ZARYA)",
        "OBJECT_ID": "1998-067A",
        "EPOCH": "2025-01-30T06:54:02.079648",
        "MEAN_MOTION": 15.50711335,
        "ECCENTRICITY": 0.0002237,
        "INCLINATION": 51.6396,
        "RA_OF_ASC_NODE": 270.0592,
        "ARG_OF_PERICENTER": 149.8639,
        "MEAN_ANOMALY": 318.8131,
        "EPHEMERIS_TYPE": 0,
        "CLASSIFICATION_TYPE": "U",
        "NORAD_CAT_ID": 25544,
        "ELEMENT_SET_NO": 999,
        "REV_AT_EPOCH": 49377,
        "BSTAR": 0.00030397,
        "MEAN_MOTION_DOT": 0.00017371,
        "MEAN_MOTION_DDOT": 0,
        "date_fetched": "2025-01-30T13:19:50.485121Z"
    },
    {
        "OBJECT_NAME": "ISS (ZARYA)",
        "OBJECT_ID": "1998-067A",
        "EPOCH": "2025-01-30T14:10:02.712288",
        "MEAN_MOTION": 15.50717505,
        "ECCENTRICITY": 0.0002215,
        "INCLINATION": 51.6361,
        "RA_OF_ASC_NODE": 268.5635,
        "ARG_OF_PERICENTER": 158.9742,
        "MEAN_ANOMALY": 201.1339,
        "EPHEMERIS_TYPE": 0,
        "CLASSIFICATION_TYPE": "U",
        "NORAD_CAT_ID": 25544,
        "ELEMENT_SET_NO": 999,
        "REV_AT_EPOCH": 49382,
        "BSTAR": 0.00026369,
        "MEAN_MOTION_DOT": 0.00015007,
        "MEAN_MOTION_DDOT": 0,
        "date_fetched": "2025-01-30T19:11:21.389940Z"
    },
    {
        "OBJECT_NAME": "ISS (ZARYA)",
        "OBJECT_ID": "1998-067A",
        "EPOCH": "2025-01-30T22:42:28.999872",
        "MEAN_MOTION": 15.50733764,
        "ECCENTRICITY": 0.0002197,
        "INCLINATION": 51.6392,
        "RA_OF_ASC_NODE": 266.7922,
        "ARG_OF_PERICENTER": 150.6796,
        "MEAN_ANOMALY": 37.3757,
        "EPHEMERIS_TYPE": 0,
        "CLASSIFICATION_TYPE": "U",
        "NORAD_CAT_ID": 25544,
        "ELEMENT_SET_NO": 999,
        "REV_AT_EPOCH": 49387,
        "BSTAR": 0.00030159,
        "MEAN_MOTION_DOT": 0.00017245,
        "MEAN_MOTION_DDOT": 0,
        "date_fetched": "2025-01-31T02:11:53.238090Z"
    },
    {
        "OBJECT_NAME": "ISS (ZARYA)",
        "OBJECT_ID": "1998-067A",
        "EPOCH": "2025-01-31T14:54:48.474432",
        "MEAN_MOTION": 15.50752821,
        "ECCENTRICITY": 0.0002157,
        "INCLINATION": 51.6355,
        "RA_OF_ASC_NODE": 263.4489,
        "ARG_OF_PERICENTER": 160.4506,
        "MEAN_ANOMALY": 199.6566,
        "EPHEMERIS_TYPE": 0,
        "CLASSIFICATION_TYPE": "U",
        "NORAD_CAT_ID": 25544,
        "ELEMENT_SET_NO": 999,
        "REV_AT_EPOCH": 49398,
        "BSTAR": 0.00026611,
        "MEAN_MOTION_DOT": 0.00015169,
        "MEAN_MOTION_DDOT": 0,
        "date_fetched": "2025-01-31T19:11:31.772920Z"
    },
    {
        "OBJECT_NAME": "ISS (ZARYA)",
        "OBJECT_ID": "1998-067A",
        "EPOCH": "2025-01-31T23:12:53.378208",
        "MEAN_MOTION": 15.50772786,
        "ECCENTRICITY": 0.0001732,
        "INCLINATION": 51.6355,
        "RA_OF_ASC_NODE": 261.73,
        "ARG_OF_PERICENTER": 150.8105,
        "MEAN_ANOMALY": 341.5805,
        "EPHEMERIS_TYPE": 0,
        "CLASSIFICATION_TYPE": "U",
        "NORAD_CAT_ID": 25544,
        "ELEMENT_SET_NO": 999,
        "REV_AT_EPOCH": 49403,
        "BSTAR": 0.00068732,
        "MEAN_MOTION_DOT": 0.0004006,
        "MEAN_MOTION_DDOT": 0,
        "date_fetched": "2025-02-01T02:15:20.848625Z"
    },
    {
        "OBJECT_NAME": "ISS (ZARYA)",
        "OBJECT_ID": "1998-067A",
        "EPOCH": "2025-02-01T03:54:47.791296",
        "MEAN_MOTION": 15.50771351,
        "ECCENTRICITY": 0.0002069,
        "INCLINATION": 51.6379,
        "RA_OF_ASC_NODE": 260.7592,
        "ARG_OF_PERICENTER": 153.7231,
        "MEAN_ANOMALY": 352.3252,
        "EPHEMERIS_TYPE": 0,
        "CLASSIFICATION_TYPE": "U",
        "NORAD_CAT_ID": 25544,
        "ELEMENT_SET_NO": 999,
        "REV_AT_EPOCH": 49406,
        "BSTAR": 0.0002821,
        "MEAN_MOTION_DOT": 0.0001612,
        "MEAN_MOTION_DDOT": 0,
        "date_fetched": "2025-02-01T07:13:45.086873Z"
    },
    {
        "OBJECT_NAME": "ISS (ZARYA)",
        "OBJECT_ID": "1998-067A",
        "EPOCH": "2025-02-01T17:34:44.359104",
        "MEAN_MOTION": 15.4966834,
        "ECCENTRICITY": 0.0003396,
        "INCLINATION": 51.635,
        "RA_OF_ASC_NODE": 257.9368,
        "ARG_OF_PERICENTER": 260.4392,
        "MEAN_ANOMALY": 185.1884,
        "EPHEMERIS_TYPE": 0,
        "CLASSIFICATION_TYPE": "U",
        "NORAD_CAT_ID": 25544,
        "ELEMENT_SET_NO": 999,
        "REV_AT_EPOCH": 49415,
        "BSTAR": 0.00025233,
        "MEAN_MOTION_DOT": 0.00013805,
        "MEAN_MOTION_DDOT": 0,
        "date_fetched": "2025-02-02T02:14:30.796973Z"
    }
]